ID,Address,Suburb,Price,Type,Date,Rooms,Bathroom,Car,LandSize,Age,Latitude,Longitude,train_station_id,distance_to_train_station,travel_min_to_CBD,over_priced?,crime_A_average,crime_B_average,crime_C_average,closest_primary_school,distance_to_closest_primary,primary_school_ranking,closest_secondary_school,distance_to_closest_secondary,secondary_school_ranking
ID883383996,321a Union Rd,BALWYN,1500000.0,h,28/08/2016,3,2.0,2.0,404.0,8.0,-37.8075,145.1011,19896,1383.6172684593334,28.785714285714285,1,925.6666666666666,4701.333333333333,308.6666666666667,Mont Albert Primary School,637.3086449674553,135,Box Hill Senior Secondary College,970.0539312338684,not ranked
ID622340552,5/39 Service St,COBURG,598000.0,t,22/08/2016,2,1.0,1.0,108.0,12.0,-37.7379,144.9617,19964,497.48945528217087,34.0,0,1071.3333333333333,5783.666666666667,419.6666666666667,Australian International Academy of Education,426.74637358358,not ranked,Australian International Academy of Education,426.74637358358,not ranked
ID412823614,310/330 Lygon St,BRUNSWICK EAST,445000.0,u,27/06/2016,2,1.0,1.0,0.0,119.0,-37.7685,144.9724,19968,1130.8635547805602,25.333333333333332,0,703.6666666666666,1502.0,135.66666666666666,Brunswick East Primary School,759.3297766587452,not ranked,Sydney Road Community School,935.3226327902881,447
ID321874659,79 Freeman Cr,MILL PARK,705000.0,h,8/07/2017,3,2.0,2.0,531.0,30.0,-37.66462,145.05659,45795,1951.6832405716532,49.22222222222222,0,1508.3333333333333,6073.0,553.6666666666666,St Francis of Assisi School,209.01036207451173,402,Mill Park Secondary College,603.5478427176091,484
ID922876279,19/740 Orrong Rd,TOORAK,751000.0,u,3/06/2017,2,1.0,1.0,2076.0,54.0,-37.83872,145.01452,19947,1269.2946621892295,16.214285714285715,0,647.0,2861.3333333333335,222.66666666666666,St Catherine's School,595.1917028200907,117,St Catherine's School,595.1917028200907,35
ID222939994,148 Rachelle Rd,KEILOR EAST,1160000.0,h,26/08/2017,4,3.0,4.0,670.0,49.0,-37.73492,144.87231,20036,4493.978453138161,27.0,0,591.6666666666666,1189.6666666666667,177.33333333333334,Penleigh & Essendon Grammar School,353.51783799936806,126,Penleigh & Essendon Grammar School,353.51783799936806,not ranked
ID665573307,32 Princes St,CARLTON NORTH,1300000.0,h,22/04/2017,3,1.0,0.0,223.0,79.0,-37.7927,144.9745,19974,1894.2471086295195,15.142857142857142,0,3767.6666666666665,18925.0,2042.3333333333333,Carlton North Primary School,223.45681524360526,218,Academy of Mary Immaculate,1225.7387200996864,144
ID115496368,288 Church St,RICHMOND,1555000.0,h,25/02/2017,3,2.0,1.0,189.0,119.0,-37.82,144.9987,19978,851.8579858414329,9.125,0,885.0,1901.0,227.66666666666666,Richmond West Primary School,755.9253525117304,452,Richmond High School,462.05132149578526,not ranked
ID201714731,2/11 Blackburn St,SURREY HILLS,823000.0,u,17/09/2016,2,1.0,2.0,165.0,49.0,-37.822,145.0989,19895,239.36901660309397,25.5,0,2403.6666666666665,5212.333333333333,586.6666666666666,Our Holy Redeemer School,214.17998491133514,219,Fintona Girls' School,1802.1668824227606,not ranked
ID757376559,28 Atkin St,MELTON,550000.0,h,8/07/2017,4,2.0,2.0,1241.0,49.0,-37.68686,144.58157,19980,1995.3059056157254,39.6,0,1508.3333333333333,6073.0,553.6666666666666,St Dominic's School,714.7450009413496,82,Melton Secondary College,1306.5851349466507,318
ID802892907,2/1 Darook St,BLACKBURN SOUTH,725000.0,u,17/06/2017,2,2.0,2.0,311.0,59.0,-37.83459000000001,145.15721000000005,19898,1735.6866808126247,30.307692307692307,0,990.0,3070.0,411.0,St Luke the Evangelist School,928.946313102062,254,Forest Hill College,1653.0198140711962,409
ID806416118,1 Monterey Bvd,FRANKSTON NORTH,452000.0,h,3/06/2017,3,1.0,0.0,624.0,57.0,-38.1187,145.14973,19856,1308.6866832071703,66.81818181818181,0,517.3333333333334,2973.0,288.6666666666667,Belvedere Park Primary School,1016.6216404370412,not ranked,Monterey Secondary College,844.882845035519,507
ID229551375,11 Kirrum Cl,WANTIRNA SOUTH,1310000.0,h,29/07/2017,5,3.0,2.0,818.0,34.0,-37.87846,145.24212,19869,4220.505430538986,48.18181818181818,0,98.66666666666667,190.66666666666666,19.0,Holy Trinity School,130.5245137776083,not ranked,St Andrews Christian College,557.130086205994,135
ID869235867,8/42 Grosvenor St,BRIGHTON,575000.0,u,12/11/2016,2,1.0,1.0,0.0,109.0,-37.9097,144.9914,19951,742.3446917554596,26.5,0,2744.3333333333335,10289.666666666666,780.0,Brighton Grammar School,243.6470352976703,70,Brighton Grammar School,243.6470352976703,46
ID780067375,1 McDonnell Rd,COBURG NORTH,820000.0,h,12/11/2016,2,1.0,4.0,629.0,59.0,-37.7276,144.9688,19964,842.6010730470017,34.0,0,1071.3333333333333,5783.666666666667,419.6666666666667,Australian International Academy of Education,1000.0765771997252,not ranked,Mercy College,486.03641169623927,349
ID808001109,45 Allison Cr,ELTHAM NORTH,905000.0,h,26/08/2017,4,2.0,0.0,2000.0,44.0,-37.70232,145.1419,19987,1354.4875002174444,47.9,0,318.3333333333333,497.0,140.66666666666666,Holy Trinity Primary School,712.9314437379666,32,Catholic Ladies' College Ltd,1035.0876869613087,not ranked
ID347470778,33 Lindsay St,BULLEEN,1540000.0,h,6/05/2017,4,2.0,2.0,780.0,49.0,-37.7766,145.1,19935,4085.7739731682873,29.823529411764707,1,941.3333333333334,5813.0,575.6666666666666,St Clement of Rome School,1340.224207986817,196,Marcellin College,1537.7445182574586,169
ID261149881,62 Hodgson St,TEMPLESTOWE LOWER,2080000.0,h,26/07/2016,5,4.0,2.0,646.0,3.0,-37.7625,145.1043,19935,3885.571172916246,29.823529411764707,0,2403.6666666666665,5212.333333333333,586.6666666666666,Templestowe Valley Primary School,494.0421074240245,313,Templestowe College,1676.7911032511474,307
ID949975652,31 Paxton Dr,GLEN WAVERLEY,1300000.0,h,19/08/2017,3,2.0,3.0,733.0,49.0,-37.89014,145.18268999999995,19914,6618.481625844718,37.0,0,56.333333333333336,98.33333333333333,19.0,Mount View Primary School,815.6607695599938,45,Brentwood Secondary College,1774.7132903094653,168
ID355500099,47 Warburton Rd,CANTERBURY,1680000.0,h,17/09/2016,3,2.0,1.0,325.0,109.0,-37.826,145.0729,19892,414.28121565810085,21.785714285714285,0,3703.6666666666665,18944.0,2039.3333333333333,Strathcona Baptist Girls' Grammar,745.5976243741835,69,Camberwell High School,462.12948473972983,112
ID361468544,40 New St,ARMADALE,1210000.0,h,12/11/2016,2,1.0,0.0,249.0,109.0,-37.8543,145.016,19945,377.9400495230633,19.214285714285715,0,2489.6666666666665,11817.333333333334,1268.6666666666667,Armadale Primary School,282.2456502267679,87,The King David School,651.993613297224,27
ID203639020,27 Parsons St,SUNSHINE,910000.0,h,7/11/2016,3,1.0,1.0,725.0,10.0,-37.7918,144.8419,20021,872.8441219239602,24.555555555555557,1,1363.6666666666667,6287.666666666667,564.3333333333334,Our Lady of the Immaculate Conception School,615.8658633583626,not ranked,Caroline Chisholm Catholic College,978.7110265647289,not ranked
ID709230203,21D Yuille St,MELTON,710000.0,h,26/08/2017,5,2.0,2.0,1670.0,19.0,-37.67813,144.59292,19980,3327.774324072008,39.6,0,1508.3333333333333,6073.0,553.6666666666666,Melton Primary School,581.0607371050772,not ranked,Kurunjang Secondary College,844.6831331270554,506
ID158668890,57 Cobden St,KEW,2130000.0,h,6/08/2016,4,2.0,2.0,649.0,34.0,-37.802,145.036,19904,2167.3338149256206,15.666666666666666,1,271.6666666666667,771.6666666666666,74.0,Kew Primary School,293.508845197631,356,Trinity Grammar School Kew,914.2034803827764,not ranked
ID468134990,20 Kooyong Rd,ARMADALE,1715000.0,t,16/09/2017,3,3.0,1.0,1889.0,99.0,-37.86109,145.01994,19945,519.063030281379,19.214285714285715,0,2494.6666666666665,11307.0,1410.0,The King David School,889.2075386148381,140,The King David School,889.2075386148381,27
ID731574872,6/26 Parkside St,ELSTERNWICK,975000.0,u,3/06/2017,2,1.0,1.0,1764.0,49.0,-37.8879,145.01198,19954,1034.719912670142,21.5,0,1666.0,9333.666666666666,523.0,Adass Israel School,555.2994688693929,not ranked,Adass Israel School,555.2994688693929,534
ID238379888,6 Duff St,SANDRINGHAM,1660000.0,h,29/07/2017,4,2.0,2.0,390.0,15.0,-37.96,145.02068,19948,1777.713277648204,33.5,0,101.66666666666667,251.33333333333334,18.666666666666668,Sandringham East Primary School,394.7989817409796,295,Sandringham College,420.5890781652571,304
ID874042557,21 Fiddes St,MOORABBIN,1224000.0,h,3/09/2016,3,1.0,3.0,834.0,59.0,-37.9376,145.0474,19937,1003.4007359036336,38.266666666666666,0,71.0,261.0,20.0,St Catherine's School,424.58230211760565,117,Our Lady of the Sacred Heart College,1475.3880539100435,not ranked
ID397311910,8 Centenary Cr,WERRIBEE,383000.0,h,22/07/2017,3,1.0,2.0,548.0,59.0,-37.8889,144.65743999999995,19921,1210.3087754665983,35.142857142857146,0,98.66666666666667,190.66666666666666,19.0,Westgrove Primary School,1171.936036575138,not ranked,Wyndham Central Secondary College,315.40800029003344,not ranked
ID998555998,11 Webb St,BURWOOD,1322500.0,h,26/08/2017,2,1.0,1.0,731.0,69.0,-37.85621,145.10641,19848,2294.341257737603,30.666666666666668,0,941.3333333333334,5813.0,575.6666666666666,Parkhill Primary School,743.589664055424,not ranked,Presbyterian Ladies' College,853.2751660246284,6
ID958836443,11 Inverloch St,PRESTON,1330000.0,h,27/11/2016,3,2.0,3.0,502.0,69.0,-37.7406,145.0155,20012,1335.821817185061,28.3,0,659.0,5219.333333333333,338.3333333333333,Preston South Primary School,1075.577160238543,not ranked,Preston High School,817.6100159190804,not ranked
ID381693837,5 Hibiscus Rd,BLACKBURN NORTH,1250000.0,h,12/08/2017,4,2.0,2.0,580.0,54.0,-37.8051,145.14351000000005,19898,1761.9129729455688,30.307692307692307,0,5.0,73.0,1.0,Kerrimuir Primary School,743.5952991340877,91,Blackburn High School,811.966979304467,216
ID554547091,94 Mason St,NEWPORT,801000.0,h,18/06/2016,2,1.0,1.0,343.0,99.0,-37.8414,144.8752,19994,752.8416538947755,16.310344827586206,0,71.0,261.0,20.0,Newport Lakes Primary School,431.49288763745324,228,Bayside P-12 College,2016.699668092404,243
